ONEWEB-0156             
1 48052U 21025L   25055.48474124 -.00000255  00000+0 -73314-3 0  9994
2 48052  87.8888  55.1680 0001808  84.5030 275.6305 13.13470127190861
ONEWEB-0161             
1 48053U 21025M   25055.53395591  .00000237  00000+0  61406-3 0  9998
2 48053  87.8889  55.1719 0001848  82.1351 277.9988 13.13468922190806
ONEWEB-0158             
1 48054U 21025N   25055.41968604 -.00000091  00000+0 -28331-3 0  9997
2 48054  87.8884  55.1787 0001703  89.2582 270.8742 13.13469768190912
ONEWEB-0157             
1 48055U 21025P   25055.51967274  .00000421  00000+0  11190-2 0  9990
2 48055  87.8884  55.1706 0001914  73.6430 286.4909 13.13469695190879
ONEWEB-0162             
1 48056U 21025Q   25055.40699345 -.00000270  00000+0 -77458-3 0  9994
2 48056  87.8884  55.1853 0001776  87.4611 272.6721 13.13469042190823
ONEWEB-0155             
1 48057U 21025R   25055.50380410  .00000079  00000+0  18178-3 0  9995
2 48057  87.8885  55.1804 0002009  85.4089 274.7269 13.13470331190977
ONEWEB-0149             
1 48058U 21025S   25055.52441416  .00000399  00000+0  10575-2 0  9999
2 48058  87.8886  55.1712 0001570  88.2874 271.8435 13.13471589190791
ONEWEB-0148             
1 48059U 21025T   25055.48951286 -.00000245  00000+0 -70613-3 0  9998
2 48059  87.8891  55.1979 0001248  74.2362 285.8905 13.13469006190903
ONEWEB-0160             
1 48060U 21025U   25055.50538498  .00000092  00000+0  21734-3 0  9997
2 48060  87.8888  55.1909 0002211 111.0699 249.0666 13.13469445190855
ONEWEB-0163             
1 48061U 21025V   25055.49110284 -.00000198  00000+0 -57829-3 0  9998
2 48061  87.8885  55.1788 0001852  78.7413 281.3925 13.13469965190978
ONEWEB-0159             
1 48062U 21025W   25055.47999241 -.00000229  00000+0 -66291-3 0  9993
2 48062  87.8885  55.1620 0001730  81.8374 278.2951 13.13469129190897
ONEWEB-0164             
1 48063U 21025X   25055.46253870  .00000107  00000+0  25867-3 0  9991
2 48063  87.8886  55.1767 0001991  89.0033 271.1324 13.13468860190877
ONEWEB-0167             
1 48064U 21025Y   25055.49226620 -.00000198  00000+0 -57818-3 0  9991
2 48064  87.8894  55.1889 0002458  68.9776 291.1616 13.13484503190868
ONEWEB-0166             
1 48065U 21025Z   25055.51332535  .00000344  00000+0  90814-3 0  9992
2 48065  87.8880  55.1553 0001657  86.6620 273.4699 13.13469613190945
ONEWEB-0151             
1 48066U 21025AA  25055.51491342  .00000336  00000+0  88484-3 0  9996
2 48066  87.8883  55.1746 0002020  87.3088 272.8272 13.13469586190886
ONEWEB-0170             
1 48067U 21025AB  25055.52284446  .00000381  00000+0  10081-2 0  9990
2 48067  87.8884  55.1772 0002322  95.3618 264.7776 13.13469924190841
ONEWEB-0168             
1 48068U 21025AC  25055.50856364  .00000174  00000+0  44239-3 0  9996
2 48068  87.8888  55.1572 0001858  85.5442 274.5899 13.13469943190850
ONEWEB-0173             
1 48069U 21025AD  25055.50062542 -.00000024  00000+0 -10061-3 0  9996
2 48069  87.8887  55.1677 0002128  77.3659 282.7708 13.13469613191097
ONEWEB-0171             
1 48070U 21025AE  25055.53713212  .00000124  00000+0  30585-3 0  9990
2 48070  87.8889  55.1974 0001973  87.3357 272.7998 13.13469474190919
ONEWEB-0172             
1 48071U 21025AF  25055.51650142  .00000341  00000+0  89761-3 0  9992
2 48071  87.8887  55.1678 0001979  84.3105 275.8249 13.13469542191801
ONEWEB-0174             
1 48072U 21025AG  25055.49904206 -.00000065  00000+0 -21289-3 0  9999
2 48072  87.8888  55.1854 0001761  85.7487 274.3843 13.13470367191122
ONEWEB-0175             
1 48073U 21025AH  25055.52759592  .00000284  00000+0  74207-3 0  9999
2 48073  87.8882  55.1532 0002221  90.8128 269.3256 13.13471532190789
ONEWEB-0177             
1 48074U 21025AJ  25055.46412463  .00000053  00000+0  11057-3 0  9994
2 48074  87.8885  55.1778 0001861  78.0548 282.0789 13.13468707190961
ONEWEB-0178             
1 48075U 21025AK  25055.48172092 -.00000244  00000+0 -70342-3 0  9994
2 48075  87.8892  55.2092 0001888  80.9122 279.2220 13.13469066191013
ONEWEB-0108             
1 48076U 21025AL  25055.51808666  .00000362  00000+0  95645-3 0  9994
2 48076  87.8882  55.1629 0001697  92.9943 267.1380 13.13469950190957
ONEWEB-0169             
1 48077U 21025AM  25055.47364518 -.00000157  00000+0 -46484-3 0  9994
2 48077  87.8887  55.1880 0001659  93.8591 266.2727 13.13469359189595
ONEWEB-0176             
1 48210U 21031A   25055.38766362 -.00000102  00000+0 -30939-3 0  9991
2 48210  87.9040  24.6969 0001910  83.4318 276.7029 13.14502314185549
ONEWEB-0184             
1 48211U 21031B   25055.43682385  .00000314  00000+0  81366-3 0  9993
2 48211  87.9033  24.6618 0002753  81.3452 278.7989 13.14501683185528
ONEWEB-0179             
1 48212U 21031C   25055.40669237 -.00000096  00000+0 -29287-3 0  9995
2 48212  87.9037  24.6800 0001847  79.9692 280.1646 13.14502989185569
ONEWEB-0180             
1 48213U 21031D   25055.43998570  .00000308  00000+0  79660-3 0  9998
2 48213  87.9035  24.6647 0002025  77.5752 282.5604 13.14504861185456
ONEWEB-0218             
1 48214U 21031E   25055.38607152 -.00000110  00000+0 -32997-3 0  9991
2 48214  87.9036  24.6766 0002838  74.6276 285.5167 13.14504768185601
ONEWEB-0209             
1 48215U 21031F   25055.60333413  .00000146  00000+0  36036-3 0  9998
2 48215  87.9039  24.6736 0001819  77.0527 283.0806 13.14502728185636
ONEWEB-0198             
1 48216U 21031G   25055.43523940  .00000322  00000+0  83362-3 0  9996
2 48216  87.9035  24.7096 0002151  75.2881 284.8487 13.14503482185728
ONEWEB-0189             
1 48217U 21031H   25055.60015478  .00000204  00000+0  51534-3 0  9993
2 48217  87.9036  24.6514 0002143  72.4120 287.7244 13.14502474185486
ONEWEB-0196             
1 48218U 21031J   25055.42571919  .00000229  00000+0  58436-3 0  9996
2 48218  87.9037  24.6947 0001955  81.9553 278.1799 13.14502762185460
ONEWEB-0183             
1 48219U 21031K   25055.47645910 -.00000157  00000+0 -45845-3 0  9997
2 48219  87.9037  24.6985 0001695  81.5716 278.5606 13.14504165185562
ONEWEB-0185             
1 48220U 21031L   25055.42651270  .00000264  00000+0  67719-3 0  9991
2 48220  87.9035  24.6787 0001763  74.7373 285.3952 13.14504618185485
ONEWEB-0187             
1 48221U 21031M   25055.47250211 -.00000169  00000+0 -48945-3 0  9993
2 48221  87.9038  24.7049 0001779  79.7998 280.3332 13.14502594185507
ONEWEB-0192             
1 48222U 21031N   25055.60491440  .00000144  00000+0  35389-3 0  9999
2 48222  87.9039  24.6769 0001944  80.7941 279.3408 13.14502485185434
ONEWEB-0219             
1 48223U 21031P   25055.43206245  .00000255  00000+0  65298-3 0  9993
2 48223  87.9037  24.6844 0001826  76.7465 283.3869 13.14501231185616
ONEWEB-0202             
1 48224U 21031Q   25055.41303236 -.00000132  00000+0 -38938-3 0  9997
2 48224  87.9039  24.7043 0002533  71.3896 288.7509 13.14500725185590
ONEWEB-0204             
1 48225U 21031R   25055.59935303  .00000204  00000+0  51554-3 0  9990
2 48225  87.9035  24.6795 0001533  86.1662 273.9643 13.14505824185516
ONEWEB-0205             
1 48226U 21031S   25055.34643548  .00000221  00000+0  56062-3 0  9999
2 48226  87.9036  24.7010 0001840  77.6410 282.4925 13.14502795185495
ONEWEB-0206             
1 48227U 21031T   25055.47170724 -.00000159  00000+0 -46353-3 0  9999
2 48227  87.9034  24.6592 0001818  80.4968 279.6367 13.14502623185468
ONEWEB-0182             
1 48228U 21031U   25055.46695502 -.00000059  00000+0 -19317-3 0  9994
2 48228  87.9040  24.6980 0001723  85.3939 274.7388 13.14503927185674
ONEWEB-0186             
1 48229U 21031V   25055.40193455 -.00000151  00000+0 -44285-3 0  9994
2 48229  87.9037  24.6730 0001896  79.1313 281.0030 13.14502455185616
ONEWEB-0181             
1 48230U 21031W   25055.60808379  .00000146  00000+0  35844-3 0  9999
2 48230  87.9038  24.7035 0001971  79.0857 281.0494 13.14502603185499
ONEWEB-0188             
1 48231U 21031X   25055.41779324  .00000090  00000+0  20878-3 0  9995
2 48231  87.9035  24.7339 0001836  81.2594 278.8743 13.14502685185375
ONEWEB-0220             
1 48232U 21031Y   25055.45743479  .00000016  00000+0  79373-5 0  9996
2 48232  87.9031  24.6759 0001750  73.5443 286.5879 13.14500968185647
ONEWEB-0165             
1 48233U 21031Z   25055.40986193 -.00000092  00000+0 -28285-3 0  9994
2 48233  87.9039  24.7184 0001950  78.0191 282.1157 13.14502283185598
ONEWEB-0199             
1 48234U 21031AA  25055.47012385 -.00000189  00000+0 -54424-3 0  9996
2 48234  87.9039  24.6721 0001907  87.9011 272.2337 13.14502345185507
ONEWEB-0203             
1 48235U 21031AB  25055.46061065 -.00000026  00000+0 -10348-3 0  9992
2 48235  87.9037  24.6766 0002216  89.3518 270.7866 13.14502207185515
ONEWEB-0197             
1 48236U 21031AC  25055.43600992  .00000293  00000+0  75573-3 0  9993
2 48236  87.9036  24.6924 0001503  84.8174 275.3127 13.14504440185429
ONEWEB-0194             
1 48237U 21031AD  25055.41462114 -.00000187  00000+0 -53857-3 0  9999
2 48237  87.9038  24.6916 0002097  85.7915 274.3454 13.14503773185593
ONEWEB-0193             
1 48238U 21031AE  25055.43046660  .00000294  00000+0  75832-3 0  9990
2 48238  87.9037  24.6964 0001999  82.7288 277.4069 13.14504397185540
ONEWEB-0191             
1 48239U 21031AF  25055.44157964  .00000331  00000+0  85850-3 0  9995
2 48239  87.9035  24.6702 0001970  81.3115 278.8238 13.14502009185408
ONEWEB-0195             
1 48240U 21031AG  25055.41858753  .00000078  00000+0  17469-3 0  9997
2 48240  87.9032  24.6729 0002119  73.0166 287.1196 13.14502854185387
ONEWEB-0201             
1 48241U 21031AH  25055.40748812 -.00000047  00000+0 -16245-3 0  9990
2 48241  87.9038  24.7178 0001877  78.1862 281.9478 13.14504405185617
ONEWEB-0207             
1 48242U 21031AJ  25055.46296779 -.00000044  00000+0 -15362-3 0  9993
2 48242  87.9037  24.6697 0001659  79.8303 280.3014 13.14501655185532
